start=new Date('2021-09-08T00:00:00.000Z').valueOf();
sats=[{"REF_FRAME":"TEME","LAUNCH_DATE":"2020-02-17","TIME_SYSTEM":"UTC","ARG_OF_PERICENTER":"50.8582","MEAN_ANOMALY":"309.2522","INCLINATION":"53.0540","NORAD_CAT_ID":"45194","ECCENTRICITY":"0.00012930","BSTAR":"-0.00004960100000","SEMIMAJOR_AXIS":"6925.360","GP_ID":"184255239","MEAN_MOTION_DOT":"-0.00001020","CLASSIFICATION_TYPE":"U","CENTER_NAME":"EARTH","APOAPSIS":"548.121","PERIAPSIS":"546.330","DECAY_DATE":null,"OBJECT_ID":"2020-012S","SITE":"AFETR","OBJECT_TYPE":"PAYLOAD","EPOCH":"2021-09-07T10:05:16.761696","RCS_SIZE":"LARGE","REV_AT_EPOCH":"8690","COUNTRY_CODE":"US","MEAN_ELEMENT_THEORY":"SGP4","PERIOD":"95.592","MEAN_MOTION_DDOT":"0.0000000000000","ELEMENT_SET_NO":"999","EPHEMERIS_TYPE":"0","FILE":"3110255","RA_OF_ASC_NODE":"228.0339","TLE_LINE2":"2 45194  53.0540 228.0339 0001293  50.8582 309.2522 15.06396203 86903","MEAN_MOTION":"15.06396203","TLE_LINE1":"1 45194U 20012S   21250.42033289 -.00001020  00000-0 -49601-4 0  9998","OBJECT_NAME":"STARLINK-1240"},{"ARG_OF_PERICENTER":"68.9111","INCLINATION":"53.0530","MEAN_ANOMALY":"291.2001","LAUNCH_DATE":"2020-02-17","TIME_SYSTEM":"UTC","REF_FRAME":"TEME","CENTER_NAME":"EARTH","APOAPSIS":"548.017","PERIAPSIS":"546.420","GP_ID":"184255487","MEAN_MOTION_DOT":"0.00001069","CLASSIFICATION_TYPE":"U","BSTAR":"0.00009064600000","SEMIMAJOR_AXIS":"6925.354","NORAD_CAT_ID":"45195","ECCENTRICITY":"0.00011530","FILE":"3110255","EPHEMERIS_TYPE":"0","ELEMENT_SET_NO":"999","REV_AT_EPOCH":"8699","COUNTRY_CODE":"US","MEAN_ELEMENT_THEORY":"SGP4","PERIOD":"95.592","MEAN_MOTION_DDOT":"0.0000000000000","OBJECT_TYPE":"PAYLOAD","SITE":"AFETR","EPOCH":"2021-09-07T08:19:08.190912","DECAY_DATE":null,"OBJECT_ID":"2020-012T","RCS_SIZE":"LARGE","OBJECT_NAME":"STARLINK-1241","TLE_LINE1":"1 45195U 20012T   21250.34662258  .00001069  00000-0  90646-4 0  9990","MEAN_MOTION":"15.06398228","TLE_LINE2":"2 45195  53.0530 228.3714 0001153  68.9111 291.2001 15.06398228 86996","RA_OF_ASC_NODE":"228.3714"},{"GP_ID":"184281760","MEAN_MOTION_DOT":"0.00001007","CLASSIFICATION_TYPE":"U","CENTER_NAME":"EARTH","APOAPSIS":"548.037","PERIAPSIS":"546.383","NORAD_CAT_ID":"45196","ECCENTRICITY":"0.00011940","BSTAR":"0.00008647700000","SEMIMAJOR_AXIS":"6925.345","ARG_OF_PERICENTER":"56.5565","INCLINATION":"53.0527","MEAN_ANOMALY":"303.5538","REF_FRAME":"TEME","LAUNCH_DATE":"2020-02-17","TIME_SYSTEM":"UTC","TLE_LINE1":"1 45196U 20012U   21250.66729098  .00001007  00000-0  86477-4 0  9991","OBJECT_NAME":"STARLINK-1244","RA_OF_ASC_NODE":"226.9292","MEAN_MOTION":"15.06401061","TLE_LINE2":"2 45196  53.0527 226.9292 0001194  56.5565 303.5538 15.06401061 87093","ELEMENT_SET_NO":"999","FILE":"3110443","EPHEMERIS_TYPE":"0","OBJECT_TYPE":"PAYLOAD","SITE":"AFETR","EPOCH":"2021-09-07T16:00:53.940672","DECAY_DATE":null,"OBJECT_ID":"2020-012U","RCS_SIZE":"LARGE","COUNTRY_CODE":"US","MEAN_ELEMENT_THEORY":"SGP4","REV_AT_EPOCH":"8709","PERIOD":"95.592","MEAN_MOTION_DDOT":"0.0000000000000"},{"ARG_OF_PERICENTER":"66.2702","INCLINATION":"53.0537","MEAN_ANOMALY":"293.8424","LAUNCH_DATE":"2020-02-17","TIME_SYSTEM":"UTC","REF_FRAME":"TEME","APOAPSIS":"548.091","CENTER_NAME":"EARTH","PERIAPSIS":"546.279","GP_ID":"184282510","CLASSIFICATION_TYPE":"U","MEAN_MOTION_DOT":"0.00001299","BSTAR":"0.00010603000000","SEMIMAJOR_AXIS":"6925.320","NORAD_CAT_ID":"45197","ECCENTRICITY":"0.00013080","FILE":"3110443","EPHEMERIS_TYPE":"0","ELEMENT_SET_NO":"999","COUNTRY_CODE":"US","MEAN_ELEMENT_THEORY":"SGP4","REV_AT_EPOCH":"8701","MEAN_MOTION_DDOT":"0.0000000000000","PERIOD":"95.592","SITE":"AFETR","EPOCH":"2021-09-07T15:44:57.847776","OBJECT_TYPE":"PAYLOAD","OBJECT_ID":"2020-012V","DECAY_DATE":null,"RCS_SIZE":"LARGE","OBJECT_NAME":"STARLINK-1269","TLE_LINE1":"1 45197U 20012V   21250.65622509  .00001299  00000-0  10603-3 0  9990","TLE_LINE2":"2 45197  53.0537 226.9713 0001308  66.2702 293.8424 15.06409315 87018","MEAN_MOTION":"15.06409315","RA_OF_ASC_NODE":"226.9713"},{"SITE":"AFETR","EPOCH":"2021-09-07T20:18:19.567584","OBJECT_TYPE":"PAYLOAD","DECAY_DATE":null,"OBJECT_ID":"2020-012W","RCS_SIZE":"LARGE","REV_AT_EPOCH":"8729","COUNTRY_CODE":"US","MEAN_ELEMENT_THEORY":"SGP4","PERIOD":"95.593","MEAN_MOTION_DDOT":"0.0000000000000","ELEMENT_SET_NO":"999","FILE":"3110443","EPHEMERIS_TYPE":"0","RA_OF_ASC_NODE":"206.1310","TLE_LINE2":"2 45198  53.0549 206.1310 0001561  53.5098 306.6035 15.06394124 87295","MEAN_MOTION":"15.06394124","TLE_LINE1":"1 45198U 20012W   21250.84605981 -.00000679  00000-0 -26720-4 0  9998","OBJECT_NAME":"STARLINK-1154","REF_FRAME":"TEME","LAUNCH_DATE":"2020-02-17","TIME_SYSTEM":"UTC","ARG_OF_PERICENTER":"53.5098","INCLINATION":"53.0549","MEAN_ANOMALY":"306.6035","NORAD_CAT_ID":"45198","ECCENTRICITY":"0.00015610","BSTAR":"-0.00002672000000","SEMIMAJOR_AXIS":"6925.367","GP_ID":"184281258","MEAN_MOTION_DOT":"-0.00000679","CLASSIFICATION_TYPE":"U","CENTER_NAME":"EARTH","APOAPSIS":"548.313","PERIAPSIS":"546.151"},{"MEAN_ANOMALY":"304.6968","INCLINATION":"53.0544","ARG_OF_PERICENTER":"55.4165","TIME_SYSTEM":"UTC","LAUNCH_DATE":"2020-02-17","REF_FRAME":"TEME","PERIAPSIS":"546.183","CENTER_NAME":"EARTH","APOAPSIS":"548.295","CLASSIFICATION_TYPE":"U","MEAN_MOTION_DOT":"0.00001356","GP_ID":"184281009","SEMIMAJOR_AXIS":"6925.374","BSTAR":"0.00010992000000","ECCENTRICITY":"0.00015250","NORAD_CAT_ID":"45199","EPHEMERIS_TYPE":"0","FILE":"3110443","ELEMENT_SET_NO":"999","PERIOD":"95.593","MEAN_MOTION_DDOT":"0.0000000000000","COUNTRY_CODE":"US","REV_AT_EPOCH":"8732","MEAN_ELEMENT_THEORY":"SGP4","RCS_SIZE":"LARGE","OBJECT_ID":"2020-012X","DECAY_DATE":null,"SITE":"AFETR","EPOCH":"2021-09-07T15:37:00.825600","OBJECT_TYPE":"PAYLOAD","OBJECT_NAME":"STARLINK-1197","TLE_LINE1":"1 45199U 20012X   21250.65070400  .00001356  00000-0  10992-3 0  9994","MEAN_MOTION":"15.06391732","TLE_LINE2":"2 45199  53.0544 207.0095 0001525  55.4165 304.6968 15.06391732 87326","RA_OF_ASC_NODE":"207.0095"},{"TLE_LINE1":"1 45201U 20012Z   21250.59173181 -.00000891  00000-0 -40902-4 0  9991","OBJECT_NAME":"STARLINK-1199","RA_OF_ASC_NODE":"207.2690","TLE_LINE2":"2 45201  53.0555 207.2690 0001593  58.0229 302.0915 15.06392938 87312","MEAN_MOTION":"15.06392938","ELEMENT_SET_NO":"999","EPHEMERIS_TYPE":"0","FILE":"3110443","RCS_SIZE":"LARGE","DECAY_DATE":null,"OBJECT_ID":"2020-012Z","OBJECT_TYPE":"PAYLOAD","SITE":"AFETR","EPOCH":"2021-09-07T14:12:05.628384","PERIOD":"95.593","MEAN_MOTION_DDOT":"0.0000000000000","MEAN_ELEMENT_THEORY":"SGP4","COUNTRY_CODE":"US","REV_AT_EPOCH":"8731","CLASSIFICATION_TYPE":"U","MEAN_MOTION_DOT":"-0.00000891","GP_ID":"184282260","PERIAPSIS":"546.132","CENTER_NAME":"EARTH","APOAPSIS":"548.338","ECCENTRICITY":"0.00015930","NORAD_CAT_ID":"45201","SEMIMAJOR_AXIS":"6925.370","BSTAR":"-0.00004090200000","MEAN_ANOMALY":"302.0915","INCLINATION":"53.0555","ARG_OF_PERICENTER":"58.0229","REF_FRAME":"TEME","TIME_SYSTEM":"UTC","LAUNCH_DATE":"2020-02-17"},{"PERIAPSIS":"541.406","APOAPSIS":"543.610","CENTER_NAME":"EARTH","CLASSIFICATION_TYPE":"U","MEAN_MOTION_DOT":"0.00003696","GP_ID":"184282011","SEMIMAJOR_AXIS":"6920.643","BSTAR":"0.00025625000000","ECCENTRICITY":"0.00015930","NORAD_CAT_ID":"45202","INCLINATION":"52.9813","MEAN_ANOMALY":"290.1715","ARG_OF_PERICENTER":"69.9445","TIME_SYSTEM":"UTC","LAUNCH_DATE":"2020-02-17","REF_FRAME":"TEME","OBJECT_NAME":"STARLINK-1203","TLE_LINE1":"1 45202U 20012AA  21250.65187677  .00003696  00000-0  25625-3 0  9992","MEAN_MOTION":"15.07936620","TLE_LINE2":"2 45202  52.9813 222.8898 0001593  69.9445 290.1715 15.07936620 87107","RA_OF_ASC_NODE":"222.8898","FILE":"3110443","EPHEMERIS_TYPE":"0","ELEMENT_SET_NO":"999","MEAN_MOTION_DDOT":"0.0000000000000","PERIOD":"95.495","REV_AT_EPOCH":"8710","COUNTRY_CODE":"US","MEAN_ELEMENT_THEORY":"SGP4","RCS_SIZE":"LARGE","SITE":"AFETR","EPOCH":"2021-09-07T15:38:42.152928","OBJECT_TYPE":"PAYLOAD","DECAY_DATE":null,"OBJECT_ID":"2020-012AA"},{"LAUNCH_DATE":"2020-02-17","TIME_SYSTEM":"UTC","REF_FRAME":"TEME","ARG_OF_PERICENTER":"103.2328","MEAN_ANOMALY":"256.8877","INCLINATION":"53.0019","BSTAR":"0.01156600000000","SEMIMAJOR_AXIS":"6867.732","NORAD_CAT_ID":"45203","ECCENTRICITY":"0.00018660","CENTER_NAME":"EARTH","APOAPSIS":"490.878","PERIAPSIS":"488.315","GP_ID":"184280759","CLASSIFICATION_TYPE":"U","MEAN_MOTION_DOT":"0.00308283","COUNTRY_CODE":"US","REV_AT_EPOCH":"8728","MEAN_ELEMENT_THEORY":"SGP4","PERIOD":"94.402","MEAN_MOTION_DDOT":"0.0000000000000","DECAY_DATE":null,"OBJECT_ID":"2020-012AB","OBJECT_TYPE":"PAYLOAD","SITE":"AFETR","EPOCH":"2021-09-07T14:21:00.522144","RCS_SIZE":"LARGE","EPHEMERIS_TYPE":"0","FILE":"3110443","ELEMENT_SET_NO":"999","MEAN_MOTION":"15.25396556","TLE_LINE2":"2 45203  53.0019 203.6801 0001866 103.2328 256.8877 15.25396556 87289","RA_OF_ASC_NODE":"203.6801","OBJECT_NAME":"STARLINK-1204","TLE_LINE1":"1 45203U 20012AB  21250.59792271  .00308283  00000-0  11566-1 0  9995"},{"MEAN_ELEMENT_THEORY":"SGP4","COUNTRY_CODE":"US","REV_AT_EPOCH":"8733","PERIOD":"95.592","MEAN_MOTION_DDOT":"0.0000000000000","DECAY_DATE":null,"OBJECT_ID":"2020-012AC","OBJECT_TYPE":"PAYLOAD","SITE":"AFETR","EPOCH":"2021-09-07T14:49:14.439072","RCS_SIZE":"LARGE","EPHEMERIS_TYPE":"0","FILE":"3110443","ELEMENT_SET_NO":"999","MEAN_MOTION":"15.06402291","TLE_LINE2":"2 45204  53.0534 207.1396 0001579  60.1466 299.9679 15.06402291 87332","RA_OF_ASC_NODE":"207.1396","OBJECT_NAME":"STARLINK-1206","TLE_LINE1":"1 45204U 20012AC  21250.61752823  .00000941  00000-0  82032-4 0  9997","LAUNCH_DATE":"2020-02-17","TIME_SYSTEM":"UTC","REF_FRAME":"TEME","ARG_OF_PERICENTER":"60.1466","MEAN_ANOMALY":"299.9679","INCLINATION":"53.0534","BSTAR":"0.00008203200000","SEMIMAJOR_AXIS":"6925.342","NORAD_CAT_ID":"45204","ECCENTRICITY":"0.00015790","CENTER_NAME":"EARTH","APOAPSIS":"548.300","PERIAPSIS":"546.113","GP_ID":"184281509","MEAN_MOTION_DOT":"0.00000941","CLASSIFICATION_TYPE":"U"}];
